H1 CPF 01  gfz 2022 01 28 01  5281 tandemx   
H2 1003001  6202 36605    2022 01 28 00 59 42 2022 02 02 00 00 42   120 1 1  0 0 0
H9
10 0 59611  38862.000000  0    1725207.219  -6198929.381  -2469856.662
10 0 59611  38982.000000  0    1450750.393  -5881061.935  -3289608.663
10 0 59611  39102.000000  0    1157523.705  -5455771.365  -4051644.699
10 0 59611  39222.000000  0     852473.578  -4930300.666  -4742670.374
10 0 59611  39342.000000  0     542598.408  -4313741.734  -5350664.067
10 0 59611  39462.000000  0     234794.807  -3616867.244  -5865078.718
10 0 59611  39582.000000  0     -64289.636  -2851933.327  -6277014.918
10 0 59611  39702.000000  0    -348393.950  -2032458.376  -6579363.413
10 0 59611  39822.000000  0    -611769.503  -1172982.368  -6766916.522
10 0 59611  39942.000000  0    -849291.499   -288810.866  -6836448.983
10 0 59611  40062.000000  0   -1056554.872    604253.451  -6786766.836
10 0 59611  40182.000000  0   -1229953.725   1490185.949  -6618724.812
10 0 59611  40302.000000  0   -1366742.676   2353020.332  -6335212.993
10 0 59611  40422.000000  0   -1465079.550   3177129.469  -5941113.525
10 0 59611  40542.000000  0   -1524049.518   3947505.587  -5443226.060
10 0 59611  40662.000000  0   -1543669.206   4650033.067  -4850161.318
10 0 59611  40782.000000  0   -1524871.588   5271751.294  -4172203.735
10 0 59611  40902.000000  0   -1469471.021   5801100.909  -3421142.347
10 0 59611  41022.000000  0   -1380108.480   6228147.520  -2610073.241
10 0 59611  41142.000000  0   -1260178.582   6544779.531  -1753176.714
10 0 59611  41262.000000  0   -1113739.384   6744874.213   -865469.924
10 0 59611  41382.000000  0    -945407.116   6824426.485     37458.021
10 0 59611  41502.000000  0    -760237.762   6781638.951    939725.506
10 0 59611  41622.000000  0    -563598.690   6616967.066   1825447.802
10 0 59611  41742.000000  0    -361033.813   6333115.778   2679027.076
10 0 59611  41862.000000  0    -158126.033   5934990.977   3485433.968
10 0 59611  41982.000000  0      39639.390   5429609.340   4230477.147
10 0 59611  42102.000000  0     227007.482   4825968.441   4901059.548
10 0 59611  42222.000000  0     399080.141   4134871.521   5485410.108
10 0 59611  42342.000000  0     551432.040   3368725.637   5973284.460
10 0 59611  42462.000000  0     680213.738   2541311.241   6356141.819
10 0 59611  42582.000000  0     782239.376   1667527.441   6627288.189
10 0 59611  42702.000000  0     855058.374    763119.580   6781987.550
10 0 59611  42822.000000  0     897009.426   -155605.969   6817538.587
10 0 59611  42942.000000  0     907256.033  -1072074.390   6733319.546
10 0 59611  43062.000000  0     885802.802  -1969741.352   6530799.325
10 0 59611  43182.000000  0     833492.301  -2832391.416   6213513.970
10 0 59611  43302.000000  0     751982.363  -3644433.003   5787008.480
10 0 59611  43422.000000  0     643704.195  -4391181.673   5258743.130
10 0 59611  43542.000000  0     511803.623  -5059128.550   4637969.526
10 0 59611  43662.000000  0     360065.243  -5636192.066   3935575.892
10 0 59611  43782.000000  0     192819.952  -6111947.127   3163899.942
10 0 59611  43902.000000  0      14838.474  -6477824.079   2336512.951
10 0 59611  44022.000000  0    -168786.879  -6727272.175   1467978.873
10 0 59611  44142.000000  0    -352768.983  -6855885.957    573594.651
10 0 59611  44262.000000  0    -531758.846  -6861489.986   -330887.938
10 0 59611  44382.000000  0    -700480.513  -6744176.122  -1229549.832
10 0 59611  44502.000000  0    -853863.938  -6506294.454  -2106593.540
10 0 59611  44622.000000  0    -987173.130  -6152400.231  -2946627.456
10 0 59611  44742.000000  0   -1096126.680  -5689157.734  -3734941.214
10 0 59611  44862.000000  0   -1177007.334  -5125202.750  -4457765.568
10 0 59611  44982.000000  0   -1226757.710  -4470968.390  -5102510.232
10 0 59611  45102.000000  0   -1243060.577  -3738480.810  -5657976.638
10 0 59611  45222.000000  0   -1224401.891  -2941129.303  -6114543.613
10 0 59611  45342.000000  0   -1170115.592  -2093415.384  -6464323.637
10 0 59611  45462.000000  0   -1080409.727  -1210686.373  -6701287.394
10 0 59611  45582.000000  0    -956374.003   -308859.253  -6821357.193
10 0 59611  45702.000000  0    -799968.247    595862.003  -6822469.288
10 0 59611  45822.000000  0    -613991.438   1487270.360  -6704604.603
10 0 59611  45942.000000  0    -402033.115   2349438.414  -6469788.943
10 0 59611  46062.000000  0    -168407.385   3166996.195  -6122062.999
10 0 59611  46182.000000  0      81931.028   3925402.268  -5667421.430
10 0 59611  46302.000000  0     343486.740   4611201.741  -5113718.855
10 0 59611  46422.000000  0     610337.429   5212267.882  -4470545.987
10 0 59611  46542.000000  0     876260.317   5718024.278  -3749074.380
10 0 59611  46662.000000  0    1134868.999   6119640.842  -2961870.967
10 0 59611  46782.000000  0    1379757.557   6410199.874  -2122685.461
10 0 59611  46902.000000  0    1604649.088   6584828.103  -1246212.519
10 0 59611  47022.000000  0    1803545.133   6640790.031   -347832.455
10 0 59611  47142.000000  0    1970871.799   6577538.538    556664.243
10 0 59611  47262.000000  0    2101618.269   6396721.720   1451361.511
10 0 59611  47382.000000  0    2191465.010   6102146.227   2320505.702
10 0 59611  47502.000000  0    2236898.040   5699697.283   3148790.868
10 0 59611  47622.000000  0    2235306.734   5197218.239   3921635.789
10 0 59611  47742.000000  0    2185061.439   4604351.367   4625447.058
10 0 59611  47862.000000  0    2085569.614   3932342.462   5247862.248
10 0 59611  47982.000000  0    1937308.772   3193816.434   5777963.801
10 0 59611  48102.000000  0    1741837.919   2402533.927   6206466.003
10 0 59611  48222.000000  0    1501785.726   1573129.116   6525873.462
10 0 59611  48342.000000  0    1220815.744    720833.995   6730605.978
10 0 59611  48462.000000  0     903570.005   -138802.710   6817088.825
10 0 59611  48582.000000  0     555592.227   -990197.628   6783812.174
10 0 59611  48702.000000  0     183230.726  -1818015.513   6631356.896
10 0 59611  48822.000000  0    -206477.533  -2607445.275   6362384.891
10 0 59611  48942.000000  0    -605939.391  -3344466.081   5981594.660
10 0 59611  49062.000000  0   -1007150.903  -4016096.927   5495641.926
10 0 59611  49182.000000  0   -1401854.545  -4610627.256   4913030.604
10 0 59611  49302.000000  0   -1781707.992  -5117828.126   4243972.712
10 0 59611  49422.000000  0   -2138459.667  -5529138.289   3500214.328
10 0 59611  49542.000000  0   -2464126.834  -5837817.932   2694830.191
10 0 59611  49662.000000  0   -2751171.711  -6039066.177   1841992.612
10 0 59611  49782.000000  0   -2992671.589  -6130101.541    956718.552
10 0 59611  49902.000000  0   -3182478.851  -6110202.525     54598.952
10 0 59611  50022.000000  0   -3315366.673  -5980706.794   -848483.850
10 0 59611  50142.000000  0   -3387156.805  -5744968.644  -1736644.867
10 0 59611  50262.000000  0   -3394826.052  -5408275.371  -2594284.433
10 0 59611  50382.000000  0   -3336588.826  -4977725.245  -3406368.978
10 0 59611  50502.000000  0   -3211953.183  -4462070.374  -4158698.001
10 0 59611  50622.000000  0   -3021749.814  -3871530.294  -4838151.196
10 0 59611  50742.000000  0   -2768134.519  -3217581.553  -5432912.507
10 0 59611  50862.000000  0   -2454564.719  -2512728.015  -5932667.713
10 0 59611  50982.000000  0   -2085750.460  -1770257.567  -6328773.543
10 0 59611  51102.000000  0   -1667580.465  -1003989.675  -6614396.391
10 0 59611  51222.000000  0   -1207026.186   -228019.154  -6784618.276
10 0 59611  51342.000000  0    -712026.372    543538.643  -6836511.341
10 0 59611  51462.000000  0    -191352.327   1296797.978  -6769182.841
10 0 59611  51582.000000  0     345543.458   2018346.056  -6583788.434
10 0 59611  51702.000000  0     888693.654   2695476.157  -6283516.490
10 0 59611  51822.000000  0    1427797.852   3316408.787  -5873539.900
10 0 59611  51942.000000  0    1952413.493   3870495.878  -5360935.154
10 0 59611  52062.000000  0    2452155.034   4348405.027  -4754571.440
10 0 59611  52182.000000  0    2916897.979   4742282.224  -4064968.696
10 0 59611  52302.000000  0    3336983.500   5045888.782  -3304124.625
10 0 59611  52422.000000  0    3703420.206   5254708.948  -2485313.720
10 0 59611  52542.000000  0    4008078.421   5366024.998  -1622859.129
10 0 59611  52662.000000  0    4243870.914   5378957.642   -731882.461
10 0 59611  52782.000000  0    4404916.147   5294470.649    171965.223
10 0 59611  52902.000000  0    4486679.484   5115336.984   1072785.149
10 0 59611  53022.000000  0    4486086.874   4846068.146   1954717.776
10 0 59611  53142.000000  0    4401611.451   4492811.103   2802229.751
10 0 59611  53262.000000  0    4233328.034   4063210.329   3600397.850
10 0 59611  53382.000000  0    3982932.810   3566240.418   4335177.652
10 0 59611  53502.000000  0    3653731.806   3012014.705   4993652.964
10 0 59611  53622.000000  0    3250596.710   2411575.276   5564265.707
10 0 59611  53742.000000  0    2779886.446   1776666.980   6037015.068
10 0 59611  53862.000000  0    2249343.041   1119504.249   6403627.090
10 0 59611  53982.000000  0    1667960.337    452533.263   6657693.082
10 0 59611  54102.000000  0    1045828.581   -211803.188   6794775.386
10 0 59611  54222.000000  0     393957.787   -861296.997   6812481.625
10 0 59611  54342.000000  0    -275917.675  -1484199.470   6710503.699
10 0 59611  54462.000000  0    -951550.338  -2069433.495   6490622.258
10 0 59611  54582.000000  0   -1620402.793  -2606790.509   6156676.049
10 0 59611  54702.000000  0   -2269877.686  -3087108.416   5714498.899
10 0 59611  54822.000000  0   -2887554.675  -3502430.623   5171826.074
10 0 59611  54942.000000  0   -3461432.014  -3846142.692   4538165.837
10 0 59611  55062.000000  0   -3980164.211  -4113081.673   3824636.557
10 0 59611  55182.000000  0   -4433290.102  -4299617.153   3043774.405
10 0 59611  55302.000000  0   -4811448.045  -4403702.611   2209314.657
99
